NORAD_CAT_ID,OBJECT_NAME,OBJECT_TYPE,EPOCH,MEAN_MOTION,ECCENTRICITY,INCLINATION,RA_OF_ASC_NODE,ARG_OF_PERICENTER,MEAN_ANOMALY,BSTAR,MEAN_MOTION_DOT,MEAN_MOTION_DDOT,TLE_LINE0,TLE_LINE1,TLE_LINE2,SEMIMAJOR_AXIS,PERIOD,APOGEE,PERIGEE,DECAYED
55665.0,STARLINK-5474,PAYLOAD,2024-08-18 21:12:09,14.98334006,0.0002871,69.9999,156.0591,266.611,93.4721,3.3705e-05,3.09e-06,0.0,0 STARLINK-5474,1 55665U 23021AP  24231.88343754  .00000309  00000-0  33705-4 0  9993,2 55665  69.9999 156.0591 0002871 266.6110  93.4721 14.98334006 84238,6950.181,96.107,574.041,570.05,0.0
55665.0,STARLINK-5474,PAYLOAD,2024-08-19 05:12:48,14.98340264,0.0002782,70.0,155.2176,267.1861,92.8979,9.1473e-05,9.99e-06,0.0,0 STARLINK-5474,1 55665U 23021AP  24232.21723117  .00000999  00000-0  91473-4 0  9997,2 55665  70.0000 155.2176 0002782 267.1861  92.8979 14.98340264 83986,6950.161,96.106,573.96,570.093,0.0
55665.0,STARLINK-5474,PAYLOAD,2024-08-19 11:37:21,14.98333482,0.0002448,70.0011,154.5428,278.3735,81.7146,-5.9324e-06,-1.64e-06,0.0,0 STARLINK-5474,1 55665U 23021AP  24232.48427754 -.00000164  00000-0 -59324-5 0  9990,2 55665  70.0011 154.5428 0002448 278.3735  81.7146 14.98333482 84026,6950.182,96.107,573.749,570.346,0.0
55665.0,STARLINK-5474,PAYLOAD,2024-08-20 05:14:50,14.98325422,0.0002344,70.0011,152.6928,274.1102,85.9789,0.00010337,1.141e-05,0.0,0 STARLINK-5474,1 55665U 23021AP  24233.21864153  .00001141  00000-0  10337-3 0  9993,2 55665  70.0011 152.6928 0002344 274.1102  85.9789 14.98325422 84133,6950.207,96.107,573.701,570.443,0.0
55665.0,STARLINK-5474,PAYLOAD,2024-08-20 21:16:10,14.98336366,0.0002751,70.0,151.0116,265.2037,94.8808,5.1513e-05,5.22e-06,0.0,0 STARLINK-5474,1 55665U 23021AP  24233.88623408  .00000522  00000-0  51513-4 0  9996,2 55665  70.0000 151.0116 0002751 265.2037  94.8808 14.98336366 84234,6950.173,96.107,573.95,570.126,0.0
55665.0,STARLINK-5474,PAYLOAD,2024-08-21 03:40:42,14.98328038,0.0002728,70.0006,150.3374,267.9002,92.1845,0.00028542,3.314e-05,0.0,0 STARLINK-5474,1 55665U 23021AP  24234.15327455  .00003314  00000-0  28542-3 0  9997,2 55665  70.0006 150.3374 0002728 267.9002  92.1845 14.98328038 84579,6950.199,96.107,573.96,570.168,0.0
55665.0,STARLINK-5474,PAYLOAD,2024-08-21 19:42:03,14.98327553,0.0002441,70.0008,148.6556,247.1047,112.9854,3.6933e-05,3.48e-06,0.0,0 STARLINK-5474,1 55665U 23021AP  24234.82087863  .00000348  00000-0  36933-4 0  9995,2 55665  70.0008 148.6556 0002441 247.1047 112.9854 14.98327553 84677,6950.2,96.107,573.762,570.369,0.0
55665.0,STARLINK-5474,PAYLOAD,2024-08-21 22:54:20,14.98324972,0.0002539,70.0006,148.3188,249.0003,111.0884,1.1134e-05,4e-07,0.0,0 STARLINK-5474,1 55665U 23021AP  24234.95440097  .00000040  00000-0  11134-4 0  9996,2 55665  70.0006 148.3188 0002539 249.0003 111.0884 14.98324972 84398,6950.208,96.107,573.838,570.309,0.0
